[{"OBJECT_NAME":"COSMOS 2494 (SKRL-756 2)","OBJECT_ID":"2013-078B","EPOCH":"2026-03-09T22:07:38.657280","MEAN_MOTION":15.04216116,"ECCENTRICITY":0.00160459,"INCLINATION":82.4161,"RA_OF_ASC_NODE":348.0656,"ARG_OF_PERICENTER":176.5861,"MEAN_ANOMALY":183.5478,"EPHEMERIS_TYPE":0,"CLASSIFICATION_TYPE":"U","NORAD_CAT_ID":39491,"ELEMENT_SET_NO":999,"REV_AT_EPOCH":66388,"BSTAR":0.0003906904,"MEAN_MOTION_DOT":5.469e-5,"MEAN_MOTION_DDOT":0},{"OBJECT_NAME":"STARLINK-34780","OBJECT_ID":"2025-165U","EPOCH":"2026-03-09T17:21:31.633920","MEAN_MOTION":15.0564675,"ECCENTRICITY":6.619e-5,"INCLINATION":97.6019,"RA_OF_ASC_NODE":147.234,"ARG_OF_PERICENTER":113.2341,"MEAN_ANOMALY":246.8956,"EPHEMERIS_TYPE":0,"CLASSIFICATION_TYPE":"U","NORAD_CAT_ID":65074,"ELEMENT_SET_NO":999,"REV_AT_EPOCH":3479,"BSTAR":0.00042063792,"MEAN_MOTION_DOT":6.013e-5,"MEAN_MOTION_DDOT":0}]
